"id","name","phone","city","star","category","address","created_at","updated_at"
"2","大连·赤龍养车","0411-82496369","大连市","1","车行","辽宁省,大连市,中山区,大连市中山区八一路131号...","2016-11-14 09:28:08.063992","2016-11-14 09:28:08.063992"
"2","大连·驰加西安路店","0411-84528997","大连市","1","车行","辽宁省,大连市,沙河口区,大连市沙河口区沙河口中长...","2016-11-14 09:28:08.073567","2016-11-14 09:28:08.073567"
"3","大连·驰加胜利路店","0411-84355999","大连市","1","车行","辽宁省,大连市,西岗区,大连市西岗区胜利路111号...","2016-11-14 09:28:08.075353","2016-11-14 09:28:08.075353"
"4","大连·驰加解放路店","0411-62881899","大连市","1","车行","辽宁省,大连市,中山区,大连市中山区解放路604号...","2016-11-14 09:28:08.077002","2016-11-14 09:28:08.077002"
"5","大连·通达洗车","13204050091","大连市","2","车行","辽宁省,大连市,中山区,大连市中山区春德街86号（...","2016-11-14 09:28:08.078609","2016-11-14 09:28:08.078609"
"6","大连·舒雅汽车美容","15754016970","大连市","1","车行","辽宁省,大连市,甘井子区,大连市甘井子区辛寨子街道...","2016-11-14 09:28:08.080353","2016-11-14 09:28:08.080353"
"7","大连·美安达汽车养护中心","13940962783","大连市","1","车行","辽宁省,大连市,甘井子区,大连市甘井子区锦城西园4...","2016-11-14 09:28:08.082161","2016-11-14 09:28:08.082161"
"8","大连·隆腾美车会所","13591800168","大连市","1","车行","辽宁省,大连市,甘井子区,大连市甘井子区红旗西路1...","2016-11-14 09:28:08.084388","2016-11-14 09:28:08.084388"
"9","大连·恒源汽车美容","13940980416","大连市","1","车行","辽宁省,大连市,沙河口区,大连市沙河口区黄河路81...","2016-11-14 09:28:08.087308","2016-11-14 09:28:08.087308"
"10","大连·革新汽车美容","18842820081","大连市","1","车行","辽宁省,大连市,甘井子区,大连市甘井子区辛寨子街道...","2016-11-14 09:28:08.089832","2016-11-14 09:28:08.089832"
"11","大连·车都市汽车美容用品坊","13478787006","大连市","1","车行","辽宁省,大连市,沙河口区,大连市沙河口区富民路23...","2016-11-14 09:28:08.091974","2016-11-14 09:28:08.091974"
"12","漯河·御车坊汽车美容生活馆","18539509918","漯河市","1","车行","河南省,漯河市,市辖区,漯河市解放路南段电力器材厂...","2016-11-14 09:28:08.093613","2016-11-14 09:28:08.093613"
"13","漯河·爱车世家汽车美容维修服务","13781709385","漯河市","1","车行","河南省,漯河市,市辖区,漯河市召陵区桐柏山路与滦河...","2016-11-14 09:28:08.095139","2016-11-14 09:28:08.095139"
"14","漯河·东方汽车美容装饰","13939593860","漯河市","1","车行","河南省,漯河市,市辖区,漯河市人民路与衡山路交叉口...","2016-11-14 09:28:08.097003","2016-11-14 09:28:08.097003"
"15","阜阳-阳光宝贝","0558-2262026","阜阳市","2","优质生活","安徽省,阜阳市,颍州区,颍州中路文峰宾馆对面金城大...","2016-11-14 09:28:08.099297","2016-11-14 09:28:08.099297"
"16","漯河·驰耐安汽车装饰美容中心","13069565556","漯河市","1","车行","河南省,漯河市,市辖区,漯河市金山路与湘江路交叉口...","2016-11-14 09:28:08.101010","2016-11-14 09:28:08.101010"
"17","漯河·宝隆汽车服务","13603956073","漯河市","1","车行","河南省,漯河市,召陵区,漯河市解放路中段八一路口南...","2016-11-14 09:28:08.102851","2016-11-14 09:28:08.102851"
"18","阜阳-衣来净洗衣店","13339221518","阜阳市","1","优质生活","安徽省,阜阳市,颍州区,天瑞名城东区大门南50米路...","2016-11-14 09:28:08.105127","2016-11-14 09:28:08.105127"
"19","阜阳-尼罗亚商务酒店","0558-2589888","阜阳市","2","宾馆酒店","安徽省,阜阳市,颍州区,魁星路2号（友好医院旁）","2016-11-14 09:28:08.107043","2016-11-14 09:28:08.107043"
"20","阜阳-御景家园酒店","0558-3872888","阜阳市","3","宾馆酒店","安徽省,阜阳市,颍州区,人民西路与南京路交叉口","2016-11-14 09:28:08.109288","2016-11-14 09:28:08.109288"
"21","阜阳·申百立汽车养护美容中心","0558-2488688","阜阳市","1","车行","安徽省,阜阳市,颍东区,阜阳市北京东路颍东区委斜对...","2016-11-14 09:28:08.111275","2016-11-14 09:28:08.111275"
"22","阜阳·金诺汽车养护中心","0558-2231919","阜阳市","1","车行","安徽省,阜阳市,市辖区,阜阳市新三中北100米正基...","2016-11-14 09:28:08.113303","2016-11-14 09:28:08.113303"
"23","上蔡·锦晟汽车维修服务中心","18839608571","驻马店市","1","车行","河南省,驻马店市,上蔡县,上蔡县蔡侯路东段二里农贸...","2016-11-14 09:28:08.115414","2016-11-14 09:28:08.115414"
"24","郑州·致远汽车快速服务中心2号店","13721405525","郑州市","1","车行","河南省,郑州市,市辖区,郑州市金水区国基路与普庆路...","2016-11-14 09:28:08.117435","2016-11-14 09:28:08.117435"
"25","郑州·乐途汽车维修服务","13213141565","郑州市","1","车行","河南省,郑州市,市辖区,郑州市秦岭路五龙口路向东1...","2016-11-14 09:28:08.120263","2016-11-14 09:28:08.120263"
"26","阜阳·德意电器","18656861429","阜阳市","1","优质生活","安徽省,阜阳市,颍州区,阜阳市颍州区天瑞名城营销中...","2016-11-14 09:28:08.122230","2016-11-14 09:28:08.122230"
"27","郑州·德国马牌","15003814078","郑州市","1","车行","河南省,郑州市,二七区,郑州市长江路嵩山路向北20...","2016-11-14 09:28:08.123915","2016-11-14 09:28:08.123915"
"28","漯河·小楚汽车美容会所","15565909600","漯河市","1","车行","河南省,漯河市,市辖区,漯河市海河路与舟山路交叉口...","2016-11-14 09:28:08.152944","2016-11-14 09:28:08.152944"
"29","漯河·车生活一站式汽车美容装饰","18939555569","漯河市","1","车行","河南省,漯河市,市辖区,漯河市辽河路西段加油站对面...","2016-11-14 09:28:08.156145","2016-11-14 09:28:08.156145"
"30","漯河·小拇指","18739596878","漯河市","1","车行","河南省,漯河市,市辖区,漯河市泰山路与柳江路交叉口...","2016-11-14 09:28:08.158201","2016-11-14 09:28:08.158201"
"31","漯河·佳诚汽车装饰美容中心","15539559990","漯河市","1","车行","河南省,漯河市,市辖区,漯河市海河路与祁山路交叉口...","2016-11-14 09:28:08.160946","2016-11-14 09:28:08.160946"
"32","漯河·固特异轮胎","13507656699","漯河市","1","车行","河南省,漯河市,市辖区,漯河市泰山路与松江路交叉口...","2016-11-14 09:28:08.163196","2016-11-14 09:28:08.163196"
"33","漯河·车爵仕汽车美容装饰","18539536085","漯河市","1","车行","河南省,漯河市,市辖区,漯河市滨河路涵洞西口路南","2016-11-14 09:28:08.164857","2016-11-14 09:28:08.164857"
"34","郑州·油易换汽车服务有限公司","15637159000","郑州市","1","车行","河南省,郑州市,市辖区,郑州市郑东新区天时路9号","2016-11-14 09:28:08.166585","2016-11-14 09:28:08.166585"
"35","驻马店·合威汽车美容","0396-3578688","驻马店市","1","车行","河南省,驻马店市,驿城区,驻马店市团结路与文明路交...","2016-11-14 09:28:08.168514","2016-11-14 09:28:08.168514"
"36","太和·伊丽莎白窗帘布艺","13155589210","阜阳市","1","优质生活","安徽省,阜阳市,太和县,太和县温泉度假村南300米...","2016-11-14 09:28:08.172373","2016-11-14 09:28:08.172373"
"37","阜阳·森迪门业","0558-2312697","阜阳市","1","优质生活","安徽省,阜阳市,颍东区,阜阳市颍东区幸福西路安居花...","2016-11-14 09:28:08.174289","2016-11-14 09:28:08.174289"
"38","阜阳·艺锦装饰","18155862156","阜阳市","3","优质生活","安徽省,阜阳市,颍州区,阜阳市颍州区清河西路港利上...","2016-11-14 09:28:08.206759","2016-11-14 09:28:08.206759"
"39","阜阳·怡香茶行","18305586998","阜阳市","1","休闲养生","安徽省,阜阳市,市辖区,阜阳市北京中路水建公司北院...","2016-11-14 09:28:08.208676","2016-11-14 09:28:08.208676"
"40","阜阳·Girl's","Market","17356976157","阜阳市","1","优质生活","2016-11-14 09:28:08.210407","2016-11-14 09:28:08.210407"
"41","太和·爱车之家","15956893111","阜阳市","1","车行","安徽省,阜阳市,太和县,太和县文明东路曙光新村","2016-11-14 09:28:08.212202","2016-11-14 09:28:08.212202"
"42","太和·车骏易汽车美容","13215588885","阜阳市","1","车行","安徽省,阜阳市,太和县,太和县健康东路第十小学东3...","2016-11-14 09:28:08.213808","2016-11-14 09:28:08.213808"
"43","阜阳·爱车美车汽车美容","18005582526","阜阳市","1","车行","安徽省,阜阳市,颍州区,阜阳市颍州区清河西路港利上...","2016-11-14 09:28:08.215566","2016-11-14 09:28:08.215566"
"44","周口·渝巴奴毛肚火锅","0394-8307777","周口市","1","特色美食","河南省,周口市,市辖区,周口市莲花路维也纳公园大门...","2016-11-14 09:28:08.217461","2016-11-14 09:28:08.217461"
"45","周口·型动健身","0394-8863333","周口市","1","休闲养生","河南省,周口市,市辖区,周口市莲花路维也纳公园大门...","2016-11-14 09:28:08.219761","2016-11-14 09:28:08.219761"
"46","阜阳·龙腾飞汽车美容","18655863727","阜阳市","1","车行","安徽省,阜阳市,颍州区,阜阳市颍州淮河路767号万...","2016-11-14 09:28:08.222999","2016-11-14 09:28:08.222999"
"47","阜阳·靓车屋汽车装饰养护中心","13956795226","阜阳市","1","车行","安徽省,阜阳市,颍州区,阜阳市颍州南路电业局小区颐...","2016-11-14 09:28:08.226002","2016-11-14 09:28:08.226002"
"48","阜阳·e车站专业汽车美容养护中心","18555083980","阜阳市","1","车行","安徽省,阜阳市,颍泉区,阜阳市颍泉区北京中路交警六...","2016-11-14 09:28:08.255776","2016-11-14 09:28:08.255776"
"49","阜阳·66公路","17355820166","阜阳市","1","车行","安徽省,阜阳市,市辖区,阜阳市东城墙路温州街20栋","2016-11-14 09:28:08.257674","2016-11-14 09:28:08.257674"
"50","颍上·寰宇汽车美容养护会所","18755856868","阜阳市","1","车行","安徽省,阜阳市,颍上县,颍上县城北新区皇府上郡西门...","2016-11-14 09:28:08.259449","2016-11-14 09:28:08.259449"
"51","颍上·车美居美容会所","18956711828","阜阳市","1","车行","安徽省,阜阳市,颍上县,颍上县建颍路107号（管仲...","2016-11-14 09:28:08.261066","2016-11-14 09:28:08.261066"
"52","临泉·协润汽车划痕修复专家","15398152729","阜阳市","1","车行","安徽省,阜阳市,临泉县,临泉县解放南大街与阜临路交...","2016-11-14 09:28:08.262771","2016-11-14 09:28:08.262771"
"53","临泉·百车汇汽车生活馆","15215587268","阜阳市","1","车行","安徽省,阜阳市,临泉县,临泉县四化东路王柿园","2016-11-14 09:28:08.264475","2016-11-14 09:28:08.264475"
"54","界首·护车使者养护中心","18856816622","阜阳市","1","车行","安徽省,阜阳市,界首市,界首市火车站路口向西100...","2016-11-14 09:28:08.266182","2016-11-14 09:28:08.266182"
"55","界首·鼎尚汽车美容会所","13335589296","阜阳市","1","车行","安徽省,阜阳市,界首市,界首市新阳路矿泉浴池东50...","2016-11-14 09:28:08.267985","2016-11-14 09:28:08.267985"
"56","阜南·大唐汽车服务","0558-6663566","阜阳市","1","车行","安徽省,阜阳市,阜南县,阜南县三塔北路城市花园西门...","2016-11-14 09:28:08.271606","2016-11-14 09:28:08.271606"
"57","阜南·鑫龙车友会","0558-2884488","阜阳市","1","车行","安徽省,阜阳市,阜南县,阜南县南阳大道建材市场北门...","2016-11-14 09:28:08.279730","2016-11-14 09:28:08.279730"
"58","阜阳·恒之星汽车美容装饰","15856883268","阜阳市","1","车行","安徽省,阜阳市,市辖区,阜阳市汽车北站西200米路...","2016-11-14 09:28:08.281986","2016-11-14 09:28:08.281986"
"59","阜阳·洛菲诗无缝墙布","18856865688","阜阳市","1","优质生活","安徽省,阜阳市,市辖区,阳市中南大道港利金茂广场8...","2016-11-14 09:28:08.283705","2016-11-14 09:28:08.283705"
"60","阜阳·法恩莎卫浴","0558-2311899","阜阳市","1","优质生活","安徽省,阜阳市,市辖区,阜阳市中南大道港利金茂广场...","2016-11-14 09:28:08.312700","2016-11-14 09:28:08.312700"
"61","阜阳·安玛卫浴","0558-2668600","阜阳市","1","优质生活","安徽省,阜阳市,市辖区,阜阳市临沂商城C区20栋6...","2016-11-14 09:28:08.315359","2016-11-14 09:28:08.315359"
"62","太和·博莱森汽车养护服务站","0558-2931558","阜阳市","1","车行","安徽省,阜阳市,太和县,太和县三角元长途汽车站往东...","2016-11-14 09:28:08.317812","2016-11-14 09:28:08.317812"
"63","太和·国泰体育宾馆","0558-8678999","阜阳市","1","宾馆酒店","安徽省,阜阳市,太和县,太和县国泰路体育中心北50...","2016-11-14 09:28:08.320632","2016-11-14 09:28:08.320632"
"64","太和·世存商务宾馆","0558-8692999","阜阳市","1","宾馆酒店","安徽省,阜阳市,太和县,太和县建设路88号","2016-11-14 09:28:08.324718","2016-11-14 09:28:08.324718"
"65","太和·润莱宾馆","0558-8287288","阜阳市","1","宾馆酒店","安徽省,阜阳市,太和县,太和县太和大道174号（公...","2016-11-14 09:28:08.328000","2016-11-14 09:28:08.328000"
"66","太和·嘉年华灯饰","15955865977","阜阳市","1","优质生活","安徽省,阜阳市,太和县,太和县新体育场对面","2016-11-14 09:28:08.330542","2016-11-14 09:28:08.330542"
"67","太和·艾斐宫殿婚纱摄影","0558-8279977","阜阳市","1","优质生活","安徽省,阜阳市,太和县,太和县人民北路苏宁电器对面","2016-11-14 09:28:08.362240","2016-11-14 09:28:08.362240"
"68","太和·好乐居装饰公司","18726568309","阜阳市","1","优质生活","安徽省,阜阳市,太和县,太和县建设西路和谐家园南门...","2016-11-14 09:28:08.364025","2016-11-14 09:28:08.364025"
"69","太和·洗车人家","15222983555","阜阳市","1","车行","安徽省,阜阳市,太和县,太和县国泰路锦都花园西门","2016-11-14 09:28:08.365736","2016-11-14 09:28:08.365736"
"70","周口·波尔多红酒坊","13103944888","周口市","1","优质生活","河南省,周口市,川汇区,周口市交通路与工农路交汇处...","2016-11-14 09:28:08.367322","2016-11-14 09:28:08.367322"
"71","周口·世纪国贸假日酒店","1593600092","周口市","1","宾馆酒店","河南省,周口市,川汇区,周口市川汇区大庆路中段18...","2016-11-14 09:28:08.369156","2016-11-14 09:28:08.369156"
"72","周口·锦源酒店","0394-8929999","周口市","1","宾馆酒店","河南省,周口市,川汇区,周口市川汇区八一路与黄河路...","2016-11-14 09:28:08.372920","2016-11-14 09:28:08.372920"
"73","周口·恒品茗茶","0394-8368287","周口市","1","休闲养生","河南省,周口市,川汇区,周口市黄河路与中州路交叉口...","2016-11-14 09:28:08.375722","2016-11-14 09:28:08.375722"
"74","周口·鼎尚轩斑鱼府","18749289577","周口市","1","特色美食","河南省,周口市,川汇区,周口市川汇区光荣路与育新街...","2016-11-14 09:28:08.377955","2016-11-14 09:28:08.377955"
"75","周口·克丽缇娜乔氏美容","0394-8367399","周口市","1","休闲养生","河南省,周口市,川汇区,周口市川汇区黄河路与中州路...","2016-11-14 09:28:08.410728","2016-11-14 09:28:08.410728"
"76","周口·北京天锐杰装饰","18336107610","周口市","1","优质生活","河南省,周口市,市辖区,周口市川汇区大庆路与建设大...","2016-11-14 09:28:08.412695","2016-11-14 09:28:08.412695"
"77","郑州·豫涛汽修连锁·正车店","0371-86631313","郑州市","1","车行","河南省,郑州市,市辖区,郑州市金水区国基路金杯路交...","2016-11-14 09:28:08.414304","2016-11-14 09:28:08.414304"
"78","周口·潇南汽车美容装饰","13084290051","周口市","1","车行","河南省,周口市,市辖区,周口市交通路东段格林绿色港...","2016-11-14 09:28:08.415848","2016-11-14 09:28:08.415848"
"79","周口·美之星汽车装饰美容中心","13253770004","周口市","1","车行","河南省,周口市,川汇区,周口市川汇区交通路西段现代...","2016-11-14 09:28:08.417364","2016-11-14 09:28:08.417364"
"80","周口·特福莱全球汽车连锁汽车服务","15346091677","周口市","1","车行","河南省,周口市,市辖区,周口市文昌大道大庆路交叉口...","2016-11-14 09:28:08.419103","2016-11-14 09:28:08.419103"
"81","周口·爱马汽车美容会所","15294973871","周口市","1","车行","河南省,周口市,川汇区,周口市交通路与大庆路交叉口...","2016-11-14 09:28:08.422445","2016-11-14 09:28:08.422445"
"82","周口·谊丰汽车美容中心","18738865660","周口市","1","车行","河南省,周口市,川汇区,周口市川汇区工农路南段锦绣...","2016-11-14 09:28:08.424761","2016-11-14 09:28:08.424761"
"83","周口·忠银汽车美容中心","15936052888","周口市","1","车行","河南省,周口市,市辖区,周口市黄河路与六一路交叉口...","2016-11-14 09:28:08.426860","2016-11-14 09:28:08.426860"
"84","周口·忠银汽车装饰·莲花路店","13525760019","周口市","1","车行","河南省,周口市,市辖区,周口市莲花路与中州路交叉口...","2016-11-14 09:28:08.460718","2016-11-14 09:28:08.460718"
"85","郑州·亿芯汽车美容维修保养","18703856156","郑州市","1","车行","河南省,郑州市,市辖区,郑州市列里路普惠路交叉口西...","2016-11-14 09:28:08.462486","2016-11-14 09:28:08.462486"
"86","上蔡·瑞峰茶莊","13938354617","驻马店市","1","休闲养生","河南省,驻马店市,上蔡县,上蔡县西大街与龙祥路交叉...","2016-11-14 09:28:08.464136","2016-11-14 09:28:08.464136"
"87","漯河·车饰界汽车美容会所","15903955386","漯河市","1","车行","河南省,漯河市,市辖区,漯河市大学路西段联通大厦斜...","2016-11-14 09:28:08.465817","2016-11-14 09:28:08.465817"
"88","阜阳·雷克泰酒店","0558-2295555","阜阳市","1","宾馆酒店","安徽省,阜阳市,市辖区,阜阳市一道河东路259号","2016-11-14 09:28:08.467448","2016-11-14 09:28:08.467448"
"89","阜阳·徽府茶莊","0558-2137777","阜阳市","1","休闲养生","安徽省,阜阳市,市辖区,阜阳市北京中路汽车北站东1...","2016-11-14 09:28:08.469454","2016-11-14 09:28:08.469454"
"90","太和·维多利陶瓷","0558-2935293","阜阳市","1","优质生活","安徽省,阜阳市,太和县,太和县望和新城A馆1楼15...","2016-11-14 09:28:08.472879","2016-11-14 09:28:08.472879"
"91","太和·摩力克窗帘","13956766365","阜阳市","1","优质生活","安徽省,阜阳市,太和县,太和县望和新城国邦美家居A...","2016-11-14 09:28:08.476161","2016-11-14 09:28:08.476161"
"92","太和·巴黎世家","15855859917","阜阳市","1","优质生活","安徽省,阜阳市,太和县,太和县望和新城国邦美家居A...","2016-11-14 09:28:08.478568","2016-11-14 09:28:08.478568"
"93","太和·港基新传家居","15055587866","阜阳市","1","优质生活","安徽省,阜阳市,太和县,太和县望和新城国邦美家居A...","2016-11-14 09:28:08.509767","2016-11-14 09:28:08.509767"
"94","太和·卡诺亚衣柜","0558-2936955","阜阳市","1","优质生活","安徽省,阜阳市,太和县,太和县望和新城国邦美家居B...","2016-11-14 09:28:08.511497","2016-11-14 09:28:08.511497"
"95","太和·慕思·艾娅衣柜","18110596878","阜阳市","1","优质生活","安徽省,阜阳市,太和县,太和县望和新城国邦美家居B...","2016-11-14 09:28:08.513211","2016-11-14 09:28:08.513211"
"96","太和·美大集成灶","18130728539","阜阳市","1","优质生活","安徽省,阜阳市,太和县,太和县望和新城国邦家居二楼","2016-11-14 09:28:08.514742","2016-11-14 09:28:08.514742"
"97","太和·肯帝亚地板","0558-2933636","阜阳市","1","优质生活","安徽省,阜阳市,太和县,太和县望和新城A栋2楼34...","2016-11-14 09:28:08.516435","2016-11-14 09:28:08.516435"
"98","上蔡·星海酒楼","15093552456","驻马店市","1","特色美食","河南省,驻马店市,上蔡县,上蔡县龙胜大道与腾飞路交...","2016-11-14 09:28:08.518203","2016-11-14 09:28:08.518203"
"99","上蔡·金虎家居","15236998088","驻马店市","1","优质生活","河南省,驻马店市,上蔡县,上蔡县白云大道白云商业大...","2016-11-14 09:28:08.520516","2016-11-14 09:28:08.520516"
"100","上蔡·安顺驾校","18239627978","驻马店市","1","优质生活","河南省,驻马店市,上蔡县,上蔡县老汽车站院内","2016-11-14 09:28:08.523319","2016-11-14 09:28:08.523319"
"101","郑州·优畅汽车美容会所","13623823639","郑州市","1","车行","河南省,郑州市,市辖区,郑州市金水路沙口路向北50...","2016-11-14 09:28:08.525300","2016-11-14 09:28:08.525300"
"102","郑州·嘉悦汽车服务","18838067787","郑州市","1","车行","河南省,郑州市,市辖区,郑州市经七路红专路西南角5...","2016-11-14 09:28:08.527140","2016-11-14 09:28:08.527140"
"103","郑州·快车道·华冠汽车美容","18937105177","郑州市","1","车行","河南省,郑州市,市辖区,郑州市秦岭路与建设路南20...","2016-11-14 09:28:08.559952","2016-11-14 09:28:08.559952"
"104","郑州·车驿站锦湖轮胎","18638396935","郑州市","1","车行","河南省,郑州市,市辖区,郑州市二环支路与瑞光路交叉...","2016-11-14 09:28:08.562007","2016-11-14 09:28:08.562007"
"105","郑州·车地带汽车服务","15981944966","郑州市","1","车行","河南省,郑州市,市辖区,郑州市桐柏北路威尼斯水城3...","2016-11-14 09:28:08.563649","2016-11-14 09:28:08.563649"
"106","漯河·炫车一族汽车美容装饰","15239513325","漯河市","1","车行","河南省,漯河市,市辖区,漯河市汉江路许慎幼儿园对面","2016-11-14 09:28:08.565181","2016-11-14 09:28:08.565181"
"107","漯河·天美汽车一站式服务","15039507608","漯河市","1","车行","河南省,漯河市,市辖区,漯河市汉江路东段小花盆西侧","2016-11-14 09:28:08.566740","2016-11-14 09:28:08.566740"
"108","漯河·宝鼎车饰品牌店","13903956395","漯河市","1","车行","河南省,漯河市,市辖区,漯河市建设路和泰山路交叉口","2016-11-14 09:28:08.568454","2016-11-14 09:28:08.568454"
"109","郑州·固特异汽车美容装饰长江路店","13598815583","郑州市","1","车行","河南省,郑州市,市辖区,郑州市长江路工人路交叉口","2016-11-14 09:28:08.571595","2016-11-14 09:28:08.571595"
"110","郑州·德国马牌合之鑫汽车服务","13303834494","郑州市","1","车行","河南省,郑州市,市辖区,郑州市瑞达路宏兴街东南角","2016-11-14 09:28:08.574323","2016-11-14 09:28:08.574323"
"111","郑州·合鑫汽车服务","13373900325","郑州市","1","车行","河南省,郑州市,市辖区,郑州市电厂南路曙光街交叉口...","2016-11-14 09:28:08.577055","2016-11-14 09:28:08.577055"
"112","郑州·东源汽车养护","18037577757","郑州市","1","车行","河南省,郑州市,市辖区,郑州市天明路与南丰街交叉口...","2016-11-14 09:28:08.608648","2016-11-14 09:28:08.608648"
"113","郑州·卡美家汽车服务部","18337155517","郑州市","1","车行","河南省,郑州市,市辖区,郑州市南阳路岗杜街交叉口向...","2016-11-14 09:28:08.610554","2016-11-14 09:28:08.610554"
"114","漯河·車镇汽车美容会所","15939549991","漯河市","1","车行","河南省,漯河市,市辖区,漯河市泰山路南段厚皇朝国际...","2016-11-14 09:28:08.612260","2016-11-14 09:28:08.612260"
"115","漯河·威杰龍靓车坊","13703855885","漯河市","1","车行","河南省,漯河市,市辖区,漯河市柳江路中段柳江医院对...","2016-11-14 09:28:08.613920","2016-11-14 09:28:08.613920"
"116","漯河·大拇指汽车美容中心","15639519266","漯河市","1","车行","河南省,漯河市,市辖区,漯河市大学路与太行山路交叉...","2016-11-14 09:28:08.615565","2016-11-14 09:28:08.615565"
"117","郑州·驰加·光辉店","13783558577","郑州市","1","车行","河南省,郑州市,市辖区,郑州市宋寨南街天明路向东3...","2016-11-14 09:28:08.617646","2016-11-14 09:28:08.617646"
"118","郑州·中华爱车一站式服务中心","13592675061","郑州市","1","车行","河南省,郑州市,市辖区,郑州市三全路花园路交叉口东...","2016-11-14 09:28:08.620486","2016-11-14 09:28:08.620486"
"119","郑州·醒车汇汽车服务广场","13607692446","郑州市","1","车行","河南省,郑州市,市辖区,郑州市伊河路华山路向西10...","2016-11-14 09:28:08.624291","2016-11-14 09:28:08.624291"
"120","郑州·新港汽车服务中心","13526688553","郑州市","1","车行","河南省,郑州市,市辖区,郑州市经三路广电南路向东5...","2016-11-14 09:28:08.626889","2016-11-14 09:28:08.626889"
"121","郑州·赛驰汽车维修有限公司","18003719977","郑州市","1","车行","河南省,郑州市,市辖区,郑州市三全路文化路向东30...","2016-11-14 09:28:08.659490","2016-11-14 09:28:08.659490"
"122","郑州·塞维斯汽车装饰用品商行","13140000767","郑州市","1","车行","河南省,郑州市,市辖区,郑州市国基路丰庆路交叉口向...","2016-11-14 09:28:08.661286","2016-11-14 09:28:08.661286"
"123","郑州·明点装饰美容店","15038092976","郑州市","1","车行","河南省,郑州市,市辖区,郑州市陇海路勤劳街向北50...","2016-11-14 09:28:08.663216","2016-11-14 09:28:08.663216"
"124","郑州·樂驾养护专家","18839015791","郑州市","1","车行","河南省,郑州市,市辖区,郑州市三全路索凌路交叉口向...","2016-11-14 09:28:08.665130","2016-11-14 09:28:08.665130"
"125","郑州·老王汽车装饰","13592589737","郑州市","1","车行","河南省,郑州市,市辖区,郑州市华山路与岗坡路交叉口...","2016-11-14 09:28:08.666958","2016-11-14 09:28:08.666958"
"126","郑州·碧泉镀晶·嵩山路店","15136280214","郑州市","1","车行","河南省,郑州市,市辖区,郑州市嵩山路南三环交叉口向...","2016-11-14 09:28:08.669229","2016-11-14 09:28:08.669229"
"127","郑州·碧泉镀晶·橄榄城店","18838149627","郑州市","1","车行","河南省,郑州市,市辖区,郑州市连云路丹枫路向西20...","2016-11-14 09:28:08.672648","2016-11-14 09:28:08.672648"
"128","上蔡·翼联通讯商城","15544444567","驻马店市","1","优质生活","河南省,驻马店市,上蔡县,上蔡县西大街中国联通翼联...","2016-11-14 09:28:08.675415","2016-11-14 09:28:08.675415"
"129","上蔡·华艺休闲会所","15515972597","驻马店市","1","休闲养生","河南省,驻马店市,上蔡县,上蔡县蔡候路与秦相大道交...","2016-11-14 09:28:08.678701","2016-11-14 09:28:08.678701"
"130","阜阳·鑫时代汽车美容维修中心","0558-2339986","阜阳市","1","车行","安徽省,阜阳市,市辖区,阜阳市南京路紫金城西门北侧","2016-11-14 09:28:08.709775","2016-11-14 09:28:08.709775"
"131","阜阳·靓车会专业汽车美容","0558-2781868","阜阳市","1","车行","安徽省,阜阳市,颍州区,阜阳市颍州区淮河路天瑞名城...","2016-11-14 09:28:08.711666","2016-11-14 09:28:08.711666"
"132","阜阳·赛S汽车服务","0558-2706162","阜阳市","1","车行","安徽省,阜阳市,颍泉区,阜阳市界首路颍泉区政府对面...","2016-11-14 09:28:08.713344","2016-11-14 09:28:08.713344"
"133","太和·枚凯车庄","0558-8677336","阜阳市","1","车行","安徽省,阜阳市,太和县,太和县建设东路与长征路交叉...","2016-11-14 09:28:08.715108","2016-11-14 09:28:08.715108"
"134","太和·艺博汽车美容钣喷中心","18356805906","阜阳市","1","车行","安徽省,阜阳市,太和县,太和县客运北站南200米路...","2016-11-14 09:28:08.716840","2016-11-14 09:28:08.716840"
"135","太和·东盛汽车服务部","15255882720","阜阳市","1","车行","安徽省,阜阳市,太和县,太和县国泰路阳光花园门口","2016-11-14 09:28:08.719134","2016-11-14 09:28:08.719134"
"136","郑州·微利天弘汽车美容装饰","13663848365","郑州市","1","车行","河南省,郑州市,市辖区,郑州市红旗路与经七路交叉口...","2016-11-14 09:28:08.723253","2016-11-14 09:28:08.723253"
"137","郑州·车仕捷洗车坊","13333865163","郑州市","1","车行","河南省,郑州市,市辖区,郑州市淮北街民安路向北15...","2016-11-14 09:28:08.725955","2016-11-14 09:28:08.725955"
"138","郑州·车车在线汽车维修美容服务","18737101508","郑州市","1","车行","河南省,郑州市,市辖区,郑州市文博西路与白庙路向西...","2016-11-14 09:28:08.729071","2016-11-14 09:28:08.729071"
"139","郑州·致远汽车快速服务中心1号店","13721405525","郑州市","1","车行","河南省,郑州市,市辖区,郑州市三全路与丰庆路向南3...","2016-11-14 09:28:08.760245","2016-11-14 09:28:08.760245"
"140","郑州·快车道·新世兴店","15138998666","郑州市","1","车行","河南省,郑州市,市辖区,郑州市郑密路与沁河路交叉口...","2016-11-14 09:28:08.762057","2016-11-14 09:28:08.762057"
"141","郑州·快车道·汉江路店","15138998666","郑州市","1","车行","河南省,郑州市,市辖区,郑州市兴华南街与汉江路向东...","2016-11-14 09:28:08.763720","2016-11-14 09:28:08.763720"
"142","阜阳·车王一站式汽车服务","15755860788","阜阳市","1","车行","安徽省,阜阳市,颍州区,阜阳市颍州区一道河中路与阜...","2016-11-14 09:28:08.765233","2016-11-14 09:28:08.765233"
"143","阜阳·畅行九州汽车维修服务中心","15856783959","阜阳市","1","车行","安徽省,阜阳市,颍州区,阜阳市颍州区骆庄小区附近（...","2016-11-14 09:28:08.766889","2016-11-14 09:28:08.766889"
"144","阜阳·车之骄汽车服务中心","18155881598","阜阳市","1","车行","安徽省,阜阳市,颍泉区,阜阳市颍泉区中市办事处界首...","2016-11-14 09:28:08.769084","2016-11-14 09:28:08.769084"
"145","郑州·三轮车夫一站式汽车服务","18236984444","郑州市","1","车行","河南省,郑州市,市辖区,郑州市第八大街与经南四路交...","2016-11-14 09:28:08.772290","2016-11-14 09:28:08.772290"
"146","郑州·猎狐部落汽车音响改装生活馆","18638681888","郑州市","1","车行","河南省,郑州市,市辖区,郑州市城东路与货站街交叉口...","2016-11-14 09:28:08.775751","2016-11-14 09:28:08.775751"
"147","郑州·钢铁侠汽车维修","13608684202","郑州市","1","车行","河南省,郑州市,市辖区,郑州市大学路与郑航街向东2...","2016-11-14 09:28:08.778776","2016-11-14 09:28:08.778776"
"148","郑州·七人堂·昌盛汽车","13027522234","郑州市","1","车行","河南省,郑州市,市辖区,郑州市中州大道与凤鸣路向西...","2016-11-14 09:28:08.809255","2016-11-14 09:28:08.809255"
"149","郑州·龍一汽车美容","15617702239","郑州市","1","车行","河南省,郑州市,市辖区,郑州市经北二路与经开第一大...","2016-11-14 09:28:08.811171","2016-11-14 09:28:08.811171"
"150","郑州·车宴汽车美容养护","0371-6222911","郑州市","1","车行","河南省,郑州市,二七区,郑州市民航路地铁H口东30...","2016-11-14 09:28:08.813027","2016-11-14 09:28:08.813027"
"151","郑州·水立方汽车美容中心","13523556517","郑州市","1","车行","河南省,郑州市,二七区,郑州市二七区航海路与连云路...","2016-11-14 09:28:08.814752","2016-11-14 09:28:08.814752"
"152","驻马店·万豪酒店","0396-2139999","驻马店市","1","宾馆酒店","河南省,驻马店市,驿城区,驻马店市雪松大道尚城华府...","2016-11-14 09:28:08.816366","2016-11-14 09:28:08.816366"
"153","上蔡·雅士爱车之家","13526351888","驻马店市","1","车行","河南省,驻马店市,上蔡县,上蔡县北环路苏豫中学西3...","2016-11-14 09:28:08.818400","2016-11-14 09:28:08.818400"
"154","上蔡·向阳一站式汽车服务","15890706880","驻马店市","1","车行","河南省,驻马店市,上蔡县,上蔡县车管所红绿灯西北角","2016-11-14 09:28:08.821715","2016-11-14 09:28:08.821715"
"155","上蔡·梅特莱斯","18037531673","驻马店市","1","车行","河南省,驻马店市,上蔡县,上蔡县秦相路南段广电局南...","2016-11-14 09:28:08.825579","2016-11-14 09:28:08.825579"
"156","上蔡·德国马牌","15890805007","驻马店市","1","车行","河南省,驻马店市,上蔡县,上蔡县秦相路南段（看花楼...","2016-11-14 09:28:08.829031","2016-11-14 09:28:08.829031"
"157","阜阳·欧派集成吊顶","0558-2598035","阜阳市","1","优质生活","安徽省,阜阳市,颍州区,阜阳市颍州区文峰办港利金茂...","2016-11-14 09:28:08.860605","2016-11-14 09:28:08.860605"
"158","阜阳·文峰车行","15905580199","阜阳市","1","车行","安徽省,阜阳市,颍东区,阜阳市颍东区幸福西路烟厂北...","2016-11-14 09:28:08.862574","2016-11-14 09:28:08.862574"
"159","阜阳·90後精工汽车美容","15555815582","阜阳市","1","车行","安徽省,阜阳市,颍泉区,阜阳市颍泉区河滨路环球外滩...","2016-11-14 09:28:08.864462","2016-11-14 09:28:08.864462"
"160","汝南·金帝足疗养生会所","0396-8055088","驻马店市","1","休闲养生","河南省,驻马店市,汝南县,汝南县汝河名苑北门西二十...","2016-11-14 09:28:08.868206","2016-11-14 09:28:08.868206"
"161","郑州·万国车汇","18639970824","郑州市","1","优质生活","河南省,郑州市,市辖区,郑州市郑东新区心怡路升龙广...","2016-11-14 09:28:08.871837","2016-11-14 09:28:08.871837"
"162","驻马店·格林豪泰酒店","0396-2103999","驻马店市","1","宾馆酒店","河南省,驻马店市,驿城区,驿城区乐山大道与纬四路交...","2016-11-14 09:28:08.875523","2016-11-14 09:28:08.875523"
"163","陆斯恩LUCIEN","0371-55135444","郑州市","1","优质生活","河南省,郑州市,管城回族区,郑州市郑东新区升龙广场","2016-11-14 09:28:08.878353","2016-11-14 09:28:08.878353"
"164","泌阳·车行天下精致养车坊","13703805530","驻马店市","1","车行","河南省,驻马店市,泌阳县,泌阳县迎宾路交警大队旁","2016-11-14 09:28:08.909445","2016-11-14 09:28:08.909445"
"165","泌阳·镁车坊汽车服务会所","0396-3201699","驻马店市","1","车行","河南省,驻马店市,泌阳县,泌阳县文明路与大桥路交叉...","2016-11-14 09:28:08.911180","2016-11-14 09:28:08.911180"
"166","汝南·汝河假日酒店","0396-8377777","驻马店市","1","宾馆酒店","河南省,驻马店市,汝南县,汝南县古城大道与康宁路交...","2016-11-14 09:28:08.912902","2016-11-14 09:28:08.912902"
"167","郑州·平安汽车装饰美容","0371-86605059","郑州市","1","车行","河南省,郑州市,管城回族区,郑州市郑东新区商鼎路与...","2016-11-14 09:28:08.914419","2016-11-14 09:28:08.914419"
"168","汝南·阳光苑汽车美容中心（德国马牌）","13723059666","驻马店市","1","车行","河南省,驻马店市,汝南县,汝南县王家巷与北环路交叉...","2016-11-14 09:28:08.916093","2016-11-14 09:28:08.916093"
"169","驻马店·德国马牌利星汽车服务中心","0396-2681117","驻马店市","1","车行","河南省,驻马店市,驿城区,文明路与纬一路交叉口向西...","2016-11-14 09:28:08.917917","2016-11-14 09:28:08.917917"
"170","汝南·新起点汽车维修美容中心","15893935058","驻马店市","1","车行","河南省,驻马店市,汝南县,汝南县汝河假日酒店北10...","2016-11-14 09:28:08.921086","2016-11-14 09:28:08.921086"
"171","汝南·车驿站汽车美容总汇","0396-8027066","驻马店市","1","车行","河南省,驻马店市,汝南县,汝南县登瀛路清河路交叉口...","2016-11-14 09:28:08.923778","2016-11-14 09:28:08.923778"
"172","咖啡之翼·农业南路店","0371-55368588","郑州市","1","特色美食","河南省,郑州市,市辖区,郑州市郑东新区农业南路与康...","2016-11-14 09:28:08.927382","2016-11-14 09:28:08.927382"
"173","驻马店·乐途汽车维修服务","18300711186","驻马店市","1","车行","河南省,驻马店市,驿城区,驻马店市驿城区骏马路与金...","2016-11-14 09:28:08.929503","2016-11-14 09:28:08.929503"
"174","驻马店·德力汽车服务","18639642118","驻马店市","1","车行","河南省,驻马店市,驿城区,驻马店市驿城区练江路与盘...","2016-11-14 09:28:08.958978","2016-11-14 09:28:08.958978"
"175","驻马店·宇通汽车美容装饰","18625474657","驻马店市","1","车行","河南省,驻马店市,驿城区,驻马店是驿城区交通路与薄...","2016-11-14 09:28:08.960618","2016-11-14 09:28:08.960618"
"176","驻马店·德国马牌汽车服务","13353891527","驻马店市","1","车行","河南省,驻马店市,驿城区,驻马店市驿城区前进大道北...","2016-11-14 09:28:08.962331","2016-11-14 09:28:08.962331"
"177","郑州·东海汽车美容装饰中心","18237128012","郑州市","1","车行","河南省,郑州市,市辖区,郑州市郑东新区通泰路与宏图...","2016-11-14 09:28:08.963897","2016-11-14 09:28:08.963897"
"178","贝客新语","0371-55668899","郑州市","1","特色美食","河南省,郑州市,市辖区,郑州市郑东新区农业南路与福...","2016-11-14 09:28:08.965552","2016-11-14 09:28:08.965552"
"179","丽岛酒店","0371-55155678","郑州市","1","宾馆酒店","河南省,郑州市,市辖区,郑州市郑东新区农业路与永平...","2016-11-14 09:28:08.967173","2016-11-14 09:28:08.967173"
"180","驻马店·建之特汽车划痕修复专家","17739535215","驻马店市","1","车行","河南省,驻马店市,驿城区,驻马店市驿城区白桥路与天...","2016-11-14 09:28:08.968873","2016-11-14 09:28:08.968873"
"181","百年红木","0371-53698888","郑州市","1","优质生活","河南省,郑州市,市辖区,未来路与郑汴路交叉口向北2...","2016-11-14 09:28:08.972357","2016-11-14 09:28:08.972357"
"182","聚源口腔","13781179873","郑州市","1","优质生活","河南省,郑州市,市辖区,郑州市郑东新区兴荣街与聚源...","2016-11-14 09:28:08.975236","2016-11-14 09:28:08.975236"
"183","惠民口腔","0371-63288738","郑州市","1","优质生活","河南省,郑州市,市辖区,郑州市郑东新区东风南路与列...","2016-11-14 09:28:08.977547","2016-11-14 09:28:08.977547"
"184","郑州·快车道汽车服务连锁","0371-65372029","郑州市","1","车行","河南省,郑州市,市辖区,郑州市郑东新区商鼎路与聚源...","2016-11-14 09:28:09.008778","2016-11-14 09:28:09.008778"
"185","郑州·邓禄普轮胎·小梁汽车装饰","13007628138","郑州市","1","车行","河南省,郑州市,市辖区,郑州市郑东新区商鼎路与通泰...","2016-11-14 09:28:09.010648","2016-11-14 09:28:09.010648"
"186","卢浮快捷宾馆","0371—53371792","郑州市","1","宾馆酒店","河南省,郑州市,市辖区,郑州市郑东新区东风南路与列...","2016-11-14 09:28:09.012387","2016-11-14 09:28:09.012387"
"187","郑州·天翔汽车精护会所","0371-65860020","郑州市","1","车行","河南省,郑州市,市辖区,郑州市郑东新区商鼎路与百福...","2016-11-14 09:28:09.014017","2016-11-14 09:28:09.014017"
"188","郑州·驰加","0371-86503178","郑州市","1","车行","河南省,郑州市,市辖区,郑州市郑东新区东风南路与正...","2016-11-14 09:28:09.015750","2016-11-14 09:28:09.015750"
"189","郑州·快车道·喜麦店","0371-56053522","郑州市","1","车行","河南省,郑州市,市辖区,郑州市郑东新区东风南路正光...","2016-11-14 09:28:09.017396","2016-11-14 09:28:09.017396"
"190","郭氏富侨","18768895627","郑州市","1","休闲养生","河南省,郑州市,市辖区,郑州市郑东新区绿地之窗云峰...","2016-11-14 09:28:09.019158","2016-11-14 09:28:09.019158"
"191","汉庭酒店·农业南路店","0371-85510888","郑州市","1","宾馆酒店","河南省,郑州市,市辖区,州市农业南路与永平路交叉口...","2016-11-14 09:28:09.022392","2016-11-14 09:28:09.022392"
"192","祝鑫烟酒批发超市","13838025596","郑州市","1","优质生活","河南省,郑州市,市辖区,郑州市郑东新区永平路与康平...","2016-11-14 09:28:09.025288","2016-11-14 09:28:09.025288"
"193","时间都去哪了咖啡","15560193635","郑州市","1","品味娱乐","河南省,郑州市,市辖区,郑州市郑东新区东风南路创业...","2016-11-14 09:28:09.027722","2016-11-14 09:28:09.027722"
"194","驻马店·隆祥汽车服务中心","0396-2372999","驻马店市","1","车行","河南省,驻马店市,驿城区,驻马店市驿城区中华大道（...","2016-11-14 09:28:09.056105","2016-11-14 09:28:09.056105"
"195","米尚发型主题馆","13683808895","郑州市","1","休闲养生","河南省,郑州市,市辖区,郑州市郑东新区农业南路与福...","2016-11-14 09:28:09.058004","2016-11-14 09:28:09.058004"
"196","王者之风男士SPA","0371-55526789","郑州市","1","休闲养生","河南省,郑州市,管城回族区,郑州市郑东新区农业南路...","2016-11-14 09:28:09.060014","2016-11-14 09:28:09.060014"
"197","兰亭水岸","0371-86066666,0371-6","郑州市","1","休闲养生","河南省,郑州市,管城回族区,郑州市郑东新区农业南路...","2016-11-14 09:28:09.061739","2016-11-14 09:28:09.061739"
"198","信德奔驰","宝马","路虎","专修连锁","13703821819","郑州市","2016-11-14 09:28:09.063284","2016-11-14 09:28:09.063284"
"199","信德奔驰","宝马","路虎","专修连锁·农业路店","13703821819","郑州市","2016-11-14 09:28:09.065238","2016-11-14 09:28:09.065238"
"200","樵夫科技","0371-55335588","郑州市","1","优质生活","河南省,郑州市,市辖区,郑州市郑东新区农业南路与福...","2016-11-14 09:28:09.066935","2016-11-14 09:28:09.066935"
"201","金鹏酒业","0371—63760000","郑州市","2","优质生活","河南省,郑州市,管城回族区,郑州市商鼎路与东风南路...","2016-11-14 09:28:09.068542","2016-11-14 09:28:09.068542"
"202","千宠物宠物店","18837167703","郑州市","1","优质生活","河南省,郑州市,市辖区,郑州市东区农业南路与福禄东...","2016-11-14 09:28:09.070770","2016-11-14 09:28:09.070770"
"203","名人名家国际精品酒店","18530991055","郑州市","1","特色美食","河南省,郑州市,管城回族区,郑州郑东新区东风南路与...","2016-11-14 09:28:09.075192","2016-11-14 09:28:09.075192"
"204","汤琪龙虾馆","18937150278","郑州市","1","特色美食","河南省,郑州市,管城回族区,郑州市管城回族区康平路...","2016-11-14 09:28:09.078715","2016-11-14 09:28:09.078715"
"205","阑珊咖啡","13721408875","郑州市","2","特色美食","河南省,郑州市,管城回族区,郑州市商鼎路与和光街交...","2016-11-14 09:28:09.105939","2016-11-14 09:28:09.105939"
"206","郝利她五谷杂粮","0371-63373868","郑州市","1","特色美食","河南省,郑州市,管城回族区,郑州市管城回族区农业南...","2016-11-14 09:28:09.108738","2016-11-14 09:28:09.108738"
"207","馋胖肉蟹煲","13938424555","郑州市","2","特色美食","河南省,郑州市,管城回族区,郑州市管城回族区农业南...","2016-11-14 09:28:09.111506","2016-11-14 09:28:09.111506"
"208","豫都商务酒店","0371-66877772,0371-6","郑州市","3","宾馆酒店","河南省,郑州市,管城回族区,郑州市商都路农业南路交...","2016-11-14 09:28:09.113845","2016-11-14 09:28:09.113845"
"209","赏鱼重庆鱼火锅","0371-65366665","郑州市","2","特色美食","河南省,郑州市,管城回族区,郑州市农业南路商都路交...","2016-11-14 09:28:09.115586","2016-11-14 09:28:09.115586"
"210","sweet","corner（甜蜜转身）","15238738715","郑州市","1","特色美食","2016-11-14 09:28:09.117214","2016-11-14 09:28:09.117214"
"211","真稀罕酒楼","0371—63959666","郑州市","3","特色美食","河南省,郑州市,管城回族区,郑州市商鼎路与七里河交...","2016-11-14 09:28:09.119307","2016-11-14 09:28:09.119307"
"212","文森特国际酒店","0371-86698888","郑州市","4","宾馆酒店","河南省,郑州市,管城回族区,郑州市郑东新区商鼎路6...","2016-11-14 09:28:09.123680","2016-11-14 09:28:09.123680"
"213","康平轮胎管","0371-56060332","郑州市","1","优质生活","河南省,郑州市,管城回族区,郑州市管城回族区商鼎路...","2016-11-14 09:28:09.125726","2016-11-14 09:28:09.125726"
"214","帅康汽车维修","13203889941","郑州市","1","优质生活","河南省,郑州市,管城回族区,管城回族区商鼎路与康平...","2016-11-14 09:28:09.158142","2016-11-14 09:28:09.158142"
"215","保时利汽车服务","0371-65353606","郑州市","1","车行","河南省,郑州市,市辖区,郑东新区心怡路","2016-11-14 09:28:09.160863","2016-11-14 09:28:09.160863"
"216","保时利汽车服务","0371-65353606","郑州市","1","车行","河南省,郑州市,管城回族区,郑东新区心怡路","2016-11-14 09:28:09.162826","2016-11-14 09:28:09.162826"
"217","郑州·卡卡汽车主题生活馆·双塔店","0371-55989544","郑州市","1","车行","河南省,郑州市,管城回族区,郑州市郑东新区康平路北...","2016-11-14 09:28:09.164532","2016-11-14 09:28:09.164532"
"218","郑州·卡卡汽车主题生活馆·绿城老街店","0371-87506882","郑州市","1","车行","河南省,郑州市,市辖区,郑州市郑东新区九如东路与天...","2016-11-14 09:28:09.166243","2016-11-14 09:28:09.166243"
"219","郑州·卡卡汽车主题生活馆·富田店","0371-60971007","郑州市","1","车行","河南省,郑州市,管城回族区,郑州市中州大道与灵隐路...","2016-11-14 09:28:09.167921","2016-11-14 09:28:09.167921"
"220","郑州·卡卡汽车主题生活馆·阿卡迪亚","0371-69179168","郑州市","1","车行","河南省,郑州市,市辖区,郑州市郑东新区熊儿河路阿卡...","2016-11-14 09:28:09.170891","2016-11-14 09:28:09.170891"
"221","莲子足道","0396-7083799","驻马店市","1","休闲养生","河南省,驻马店市,确山县,确山县顺河路与爱民路交叉...","2016-11-14 09:28:09.175113","2016-11-14 09:28:09.175113"
"222","威尼斯酒店","0396-7202999","驻马店市","3","宾馆酒店","河南省,驻马店市,确山县,确山县龙山路与双拥大道交...","2016-11-14 09:28:09.178222","2016-11-14 09:28:09.178222"
"223","重庆赏渔恋虾火锅","0396-3739989","驻马店市","1","特色美食","河南省,驻马店市,驿城区,驿城区纬二路与复兴路交叉...","2016-11-14 09:28:09.180251","2016-11-14 09:28:09.180251"
"224","大桶御足","0396-8178999","驻马店市","3","休闲养生","河南省,驻马店市,驿城区,驻马店市驿城区置地大道与...","2016-11-14 09:28:09.206581","2016-11-14 09:28:09.206581"
"225","金鹊康击剑俱乐部","0396-3257791","驻马店市","1","休闲养生","河南省,驻马店市,驿城区,驻马店市驿城区乐山路北段...","2016-11-14 09:28:09.208642","2016-11-14 09:28:09.208642"
"226","路卡洗衣生活馆","13783365386","驻马店市","1","优质生活","河南省,驻马店市,驿城区,驻马店市驿城区通达路（爱...","2016-11-14 09:28:09.210581","2016-11-14 09:28:09.210581"
"227","媛缘堂美容SPA","15503968844","驻马店市","1","休闲养生","河南省,驻马店市,驿城区,驻马店市驿城区通达路与金...","2016-11-14 09:28:09.212236","2016-11-14 09:28:09.212236"
"228","东成21纯K","18539661119","驻马店市","1","品味娱乐","河南省,驻马店市,驿城区,驻马店市驿城区前进路","2016-11-14 09:28:09.213939","2016-11-14 09:28:09.213939"
"229","大新足疗","13033845315","驻马店市","1","休闲养生","河南省,驻马店市,驿城区,驻马店市开发区纬二路中段...","2016-11-14 09:28:09.215647","2016-11-14 09:28:09.215647"
"230","纳兰美容养生会所","0396-2937371","驻马店市","1","休闲养生","河南省,驻马店市,驿城区,驻马店市驿城区骏马路与春...","2016-11-14 09:28:09.217372","2016-11-14 09:28:09.217372"
"231","审美造型","18336203784","驻马店市","1","休闲养生","河南省,驻马店市,驿城区,驻马店市驿城区置地大道与...","2016-11-14 09:28:09.219084","2016-11-14 09:28:09.219084"
"232","爱家·天中行酒店","0396-3395555","驻马店市","1","宾馆酒店","河南省,驻马店市,驿城区,驻马店驿城区通达路11号...","2016-11-14 09:28:09.223057","2016-11-14 09:28:09.223057"
"233","何氏珠宝玉器","0396-4917797","驻马店市","1","优质生活","河南省,驻马店市,遂平县,遂平县建设西路（近遂平县...","2016-11-14 09:28:09.228070","2016-11-14 09:28:09.228070"
"234","华之旭","18039626565","驻马店市","1","优质生活","河南省,驻马店市,遂平县,遂平县第一中学东十米步行...","2016-11-14 09:28:09.232939","2016-11-14 09:28:09.232939"
"235","测试","18639970824","驻马店市","5","优质生活","河南省,驻马店市,驿城区,通达路431号","2016-11-14 09:28:09.260200","2016-11-14 09:28:09.260200"
"236","遂平豫龙汽贸","0396-4931111","驻马店市","1","优质生活","所在省份,所在城市,所在地区,遂平县107国道北段...","2016-11-14 09:28:09.261925","2016-11-14 09:28:09.261925"
"237","车码头汽车美容养护服务中心","18037412578","驻马店市","1","车行","河南省,驻马店市,遂平县,遂平县107与国槐路交叉...","2016-11-14 09:28:09.263748","2016-11-14 09:28:09.263748"
"238","夜宴娱乐会所","0396-5281111","驻马店市","1","品味娱乐","河南省,驻马店市,平舆县,平舆县清河南路和泰和路交...","2016-11-14 09:28:09.265427","2016-11-14 09:28:09.265427"
"239","宝乐迪KTV","0396-5063999","驻马店市","1","品味娱乐","河南省,驻马店市,平舆县,平舆县清河南路216号","2016-11-14 09:28:09.267083","2016-11-14 09:28:09.267083"
"240","舒华健身俱乐部","0396-3379399","驻马店市","1","休闲养生","河南省,驻马店市,平舆县,平舆县上河城13号楼3楼","2016-11-14 09:28:09.268971","2016-11-14 09:28:09.268971"
"241","安然纳米氧吧","15239675966","驻马店市","1","休闲养生","河南省,驻马店市,平舆县,平舆县航运路中段(金珊瑚...","2016-11-14 09:28:09.273040","2016-11-14 09:28:09.273040"
"242","怡水湾园林酒店","0396-3719666/5269777","驻马店市","1","宾馆酒店","河南省,驻马店市,平舆县,平舆县清河大道与清河南路...","2016-11-14 09:28:09.275910","2016-11-14 09:28:09.275910"
"243","新时空健身俱乐部","0396-3372766","驻马店市","1","休闲养生","河南省,驻马店市,平舆县,平舆县上河城德馨路23号...","2016-11-14 09:28:09.278631","2016-11-14 09:28:09.278631"
"244","车管家汽车服务有限公司","0396-3666726","驻马店市","1","车行","河南省,驻马店市,驿城区,驻马店驿城区解放路与文明...","2016-11-14 09:28:09.306894","2016-11-14 09:28:09.306894"
"245","飞劲轮胎轿之林汽车俱乐部","13803961952","驻马店市","1","车行","河南省,驻马店市,平舆县,平舆县永乐大道东段怡馨庄...","2016-11-14 09:28:09.308668","2016-11-14 09:28:09.308668"
"246","众筹之星高端汽车服务俱乐部","13513970067","驻马店市","1","车行","河南省,驻马店市,平舆县,平舆县西城华府附近（清河...","2016-11-14 09:28:09.310390","2016-11-14 09:28:09.310390"
"247","卡秀派对KTV","0396-4892222","驻马店市","1","品味娱乐","河南省,驻马店市,遂平县,遂平县文化路与国槐路交叉...","2016-11-14 09:28:09.312258","2016-11-14 09:28:09.312258"
"248","万事达厨卫","3228788","驻马店市","1","优质生活","河南省,驻马店市,遂平县,遂平县南环路与开元路交叉...","2016-11-14 09:28:09.314406","2016-11-14 09:28:09.314406"
"249","龙车汽车美容养护中心","0396-3711337","驻马店市","1","车行","河南省,驻马店市,上蔡县,上蔡县荣光鞋厂向北30米...","2016-11-14 09:28:09.316712","2016-11-14 09:28:09.316712"
"250","保顺汽车生活馆","18239605969","驻马店市","1","车行","河南省,驻马店市,确山县,确山县朗陵大道与同力大道...","2016-11-14 09:28:09.318705","2016-11-14 09:28:09.318705"
"251","神农庄园","0396-4922999","驻马店市","1","特色美食","河南省,驻马店市,遂平县,遂平县孙沟","2016-11-14 09:28:09.322194","2016-11-14 09:28:09.322194"
"252","洗车人家汽车美容连锁机构","18039615200","驻马店市","1","车行","河南省,驻马店市,新蔡县,新蔡县新郑路双语幼儿园对...","2016-11-14 09:28:09.325797","2016-11-14 09:28:09.325797"
"253","爱卡汽车养护中心","13271711711","驻马店市","1","车行","河南省,驻马店市,新蔡县,新蔡县新正路消防队西10...","2016-11-14 09:28:09.329024","2016-11-14 09:28:09.329024"
"254","爱车行汽车美容VIP会所","18135615533","驻马店市","1","车行","河南省,驻马店市,新蔡县,新蔡县干宝大道老年病医院...","2016-11-14 09:28:09.362237","2016-11-14 09:28:09.362237"
"255","百佳汽车养护中心","15516825168","驻马店市","1","车行","河南省,驻马店市,上蔡县,上蔡县五龙源路美华小学对...","2016-11-14 09:28:09.364024","2016-11-14 09:28:09.364024"
"256","亿客隆车饰","13723057772","驻马店市","1","车行","河南省,驻马店市,上蔡县,西平县北环路西段","2016-11-14 09:28:09.365687","2016-11-14 09:28:09.365687"
"257","衣适家专业干洗店","15639699777","驻马店市","1","优质生活","河南省,驻马店市,西平县,西平县华港大街南4号楼下","2016-11-14 09:28:09.367317","2016-11-14 09:28:09.367317"
"258","尚品造型","15839634573","驻马店市","1","休闲养生","河南省,驻马店市,西平县,西平县华港水城中段路北复...","2016-11-14 09:28:09.368970","2016-11-14 09:28:09.368970"
"259","爱·蛋糕","0396-6019789","驻马店市","1","特色美食","河南省,驻马店市,西平县,西平县华港水城中段路北","2016-11-14 09:28:09.372752","2016-11-14 09:28:09.372752"
"260","老北京涮锅","0396-6209777","驻马店市","1","特色美食","河南省,驻马店市,西平县,西平县华港水路北城中段","2016-11-14 09:28:09.375675","2016-11-14 09:28:09.375675"
"261","豫Q汽车美容会所","18103963000","驻马店市","1","车行","河南省,驻马店市,平舆县,平舆县东皇大道东段路南","2016-11-14 09:28:09.377995","2016-11-14 09:28:09.377995"
"262","东方迪斯尼乐园","0396-2722730","驻马店市","1","优质生活","河南省,驻马店市,平舆县,平舆县其他县德馨路北段东...","2016-11-14 09:28:09.406770","2016-11-14 09:28:09.406770"
"263","365汽车美容会所","13223961611","驻马店市","1","车行","河南省,驻马店市,西平县,西平县华港水城西广场西北...","2016-11-14 09:28:09.409419","2016-11-14 09:28:09.409419"
"264","王东汽车生活广场","15890807062","驻马店市","1","车行","河南省,驻马店市,西平县,西平县解放路中段华港大酒...","2016-11-14 09:28:09.411146","2016-11-14 09:28:09.411146"
"265","倍耐力轮胎","13283092888","驻马店市","1","车行","河南省,驻马店市,平舆县,平舆县清河大道1-22","2016-11-14 09:28:09.412813","2016-11-14 09:28:09.412813"
"266","靓车会汽车维修养护服务中心","15716789819","驻马店市","1","车行","河南省,驻马店市,平舆县,平舆县清河大道（永丰明珠...","2016-11-14 09:28:09.414690","2016-11-14 09:28:09.414690"
"267","永鑫汽车美容装饰","15290139876","驻马店市","1","车行","河南省,驻马店市,平舆县,平舆县东皇大道（加油站东...","2016-11-14 09:28:09.416481","2016-11-14 09:28:09.416481"
"268","神话音乐会所","0396-4805555","驻马店市","1","品味娱乐","河南省,驻马店市,遂平县,遂平县金山路北段金山小学...","2016-11-14 09:28:09.418447","2016-11-14 09:28:09.418447"
"269","东方金柜KTV","0396-4965555","驻马店市","1","品味娱乐","河南省,驻马店市,遂平县,遂平县泰安路与灈阳大道交...","2016-11-14 09:28:09.421726","2016-11-14 09:28:09.421726"
"270","爱你宝专业儿童摄影","0396-4916051","驻马店市","1","优质生活","河南省,驻马店市,遂平县,遂平县建设西路老城中医院...","2016-11-14 09:28:09.425252","2016-11-14 09:28:09.425252"
"271","皇后演艺酒吧","15239615715","驻马店市","1","品味娱乐","河南省,驻马店市,遂平县,遂平县金山路北段（金山路...","2016-11-14 09:28:09.428644","2016-11-14 09:28:09.428644"
"272","豪仕KISS","ME酒吧","13137271234","驻马店市","1","品味娱乐","2016-11-14 09:28:09.457698","2016-11-14 09:28:09.457698"
"273","帝纳东方生活馆","15938030096","驻马店市","1","优质生活","河南省,驻马店市,遂平县,建设路中段齐心家具店","2016-11-14 09:28:09.460452","2016-11-14 09:28:09.460452"
"274","唯一视觉","0396-2312271","驻马店市","1","优质生活","河南省,驻马店市,遂平县,县中心岗楼汽车站对面","2016-11-14 09:28:09.463960","2016-11-14 09:28:09.463960"
"275","美食美客","0396-3221898","驻马店市","1","特色美食","河南省,驻马店市,遂平县,遂平县嵖岈山路与107交...","2016-11-14 09:28:09.466192","2016-11-14 09:28:09.466192"
"276","海艳汽车美容中心","18134498488","驻马店市","1","车行","河南省,驻马店市,确山县,董北路与爱民路交叉口西1...","2016-11-14 09:28:09.468051","2016-11-14 09:28:09.468051"
"277","仁安医院眼科","0396-4965018","郑州市","1","优质生活","河南省,驻马店市,遂平县,西关仁安医院二楼眼科","2016-11-14 09:28:09.471321","2016-11-14 09:28:09.471321"
"278","亲亲天使孕婴生活馆","17839638837","驻马店市","1","优质生活","河南省,驻马店市,确山县,顺河路与爱民路交叉口东南...","2016-11-14 09:28:09.474628","2016-11-14 09:28:09.474628"
"279","锦湖轮胎","18300794919","驻马店市","1","车行","河南省,驻马店市,遂平县,107国道公安局巡警大队...","2016-11-14 09:28:09.478074","2016-11-14 09:28:09.478074"
"280","八马茶业","0396-7102222","驻马店市","1","休闲养生","河南省,驻马店市,确山县,确山县拥军路西段","2016-11-14 09:28:09.479921","2016-11-14 09:28:09.479921"
"281","南环绿岛","18839603393","驻马店市","1","特色美食","河南省,驻马店市,确山县,盘龙大道西段(金鼎娱乐会...","2016-11-14 09:28:09.509364","2016-11-14 09:28:09.509364"
"282","小米通讯","13461855898","驻马店市","1","优质生活","河南省,驻马店市,遂平县,建设路路南公疗医院西50...","2016-11-14 09:28:09.511177","2016-11-14 09:28:09.511177"
"283","中国移动心连心手机店","15839635177","驻马店市","1","优质生活","河南省,驻马店市,遂平县,遂平县建设路农机局楼下","2016-11-14 09:28:09.512926","2016-11-14 09:28:09.512926"
"284","佰送商城","15890827166","驻马店市","1","优质生活","河南省,驻马店市,遂平县,建设路西段一小学校对面","2016-11-14 09:28:09.514469","2016-11-14 09:28:09.514469"
"285","路迈轮胎","13839680047","驻马店市","1","车行","河南省,驻马店市,遂平县,国槐路与西关大道交叉口东...","2016-11-14 09:28:09.516027","2016-11-14 09:28:09.516027"
"286","派德厨卫","13939662566","驻马店市","1","优质生活","河南省,驻马店市,遂平县,国槐路与开源路交叉口往西...","2016-11-14 09:28:09.517686","2016-11-14 09:28:09.517686"
"287","泰伦斯瓷砖","15978826626","驻马店市","1","优质生活","河南省,驻马店市,遂平县,南建材市场B4栋6号","2016-11-14 09:28:09.519771","2016-11-14 09:28:09.519771"
"288","金凯德装饰有限公司","13525318222","驻马店市","1","优质生活","河南省,驻马店市,遂平县,中原建材市场B区3栋6号","2016-11-14 09:28:09.523852","2016-11-14 09:28:09.523852"
"289","众鑫汽修服务中心","18738468088","驻马店市","1","优质生活","河南省,驻马店市,遂平县,国槐路西段莲花湖派出所东...","2016-11-14 09:28:09.526990","2016-11-14 09:28:09.526990"
"290","鸿韵阁","152-3691-6558","驻马店市","1","休闲养生","河南省,驻马店市,遂平县,金山路与遂周路交叉口向西...","2016-11-14 09:28:09.555060","2016-11-14 09:28:09.555060"
"291","瑞通驾校","0396-3676767","驻马店市","1","优质生活","河南省,驻马店市,驿城区,风光路与翠柏路交叉口向西...","2016-11-14 09:28:09.557052","2016-11-14 09:28:09.557052"
"292","永佳车饰","13461454460","驻马店市","1","车行","河南省,驻马店市,遂平县,遂平县开元路与国槐路交叉...","2016-11-14 09:28:09.559957","2016-11-14 09:28:09.559957"
"293","罗马经典婚纱摄影","0396-4915588","驻马店市","1","优质生活","河南省,驻马店市,遂平县,遂平县法姬娜步行街东20...","2016-11-14 09:28:09.561943","2016-11-14 09:28:09.561943"
"294","银都宾馆","0396-4698888","驻马店市","1","宾馆酒店","河南省,驻马店市,遂平县,建设路217号(遂平县烟...","2016-11-14 09:28:09.564393","2016-11-14 09:28:09.564393"
"295","亨得利眼镜","0396-4656006","驻马店市","1","优质生活","河南省,驻马店市,遂平县,建设西路","2016-11-14 09:28:09.566134","2016-11-14 09:28:09.566134"
"296","哈尼儿童乐园","18939688551","驻马店市","1","优质生活","河南省,驻马店市,驿城区,解放路与乐山路交叉口新百...","2016-11-14 09:28:09.567922","2016-11-14 09:28:09.567922"
"297","鹏举汽车维修中心","17737380118","驻马店市","1","车行","河南省,驻马店市,遂平县,嵖岈山镇下宋水库东200...","2016-11-14 09:28:09.571143","2016-11-14 09:28:09.571143"
"298","老狼大盘鸡","03964955789","驻马店市","1","特色美食","河南省,驻马店市,遂平县,金山北路金山小学斜对面路...","2016-11-14 09:28:09.574433","2016-11-14 09:28:09.574433"
"299","联通商务酒店","0396-4966666","驻马店市","1","宾馆酒店","河南省,驻马店市,遂平县,遂平县国槐路于文化路交叉...","2016-11-14 09:28:09.577697","2016-11-14 09:28:09.577697"
"300","顺鑫汽车维修美容装饰","13419725510","驻马店市","1","车行","河南省,驻马店市,确山县,确山县龙山路中段水岸星城","2016-11-14 09:28:09.606439","2016-11-14 09:28:09.606439"
"301","御车汇汽车美容会所","18137533801","驻马店市","1","车行","河南省,驻马店市,确山县,确山县护城河路与盘龙大道...","2016-11-14 09:28:09.608211","2016-11-14 09:28:09.608211"
"302","靓车坊汽车美容装饰会所","18039655366","驻马店市","1","车行","河南省,驻马店市,确山县,确山县盘龙镇铁南路西段御...","2016-11-14 09:28:09.609844","2016-11-14 09:28:09.609844"
"303","兴科汽车美容装饰","15939672130","驻马店市","1","车行","河南省,驻马店市,遂平县,遂平县老107乡村公路管...","2016-11-14 09:28:09.611440","2016-11-14 09:28:09.611440"
"304","小蚂蚁精洗","13839662568","驻马店市","1","车行","河南省,驻马店市,遂平县,遂平县金山小学对面","2016-11-14 09:28:09.612936","2016-11-14 09:28:09.612936"
"305","洁净空间汽车美容装饰","15638333446","驻马店市","1","车行","河南省,驻马店市,遂平县,遂平县建设西路","2016-11-14 09:28:09.614598","2016-11-14 09:28:09.614598"
"306","鑫港汽车服务广场","13783321449","驻马店市","1","车行","河南省,驻马店市,遂平县,遂平县嵖岈山路","2016-11-14 09:28:09.616191","2016-11-14 09:28:09.616191"
"307","山海健身","0396-2836262","驻马店市","1","休闲养生","河南省,驻马店市,驿城区,天中山大道与中华大道交叉...","2016-11-14 09:28:09.617808","2016-11-14 09:28:09.617808"
"308","测试商家","15225079151","郑州市","1","车行","河南省,郑州市,金水区,财富广场","2016-11-14 09:28:09.620073","2016-11-14 09:28:09.620073"
"309","海底捞驻马店清真店","0396-2039999","驻马店市","1","特色美食","河南省,驻马店市,驿城区,驿城区乐山路109梦回大...","2016-11-14 09:28:09.623666","2016-11-14 09:28:09.623666"
"310","大花轿婚纱摄影英伦会馆","0396-3689666,3689777","驻马店市","1","优质生活","河南省,驻马店市,驿城区,驻马店市雪松路与乐山路交...","2016-11-14 09:28:09.626687","2016-11-14 09:28:09.626687"
"311","纽约纽约","0396-2999522","驻马店市","1","优质生活","河南省,驻马店市,驿城区,骏马路和文化路交叉口向南...","2016-11-14 09:28:09.628789","2016-11-14 09:28:09.628789"
"312","拾花摄影馆","0396-2939992","驻马店市","1","优质生活","河南省,驻马店市,驿城区,乐山大道驻马店乐山商场往...","2016-11-14 09:28:09.657143","2016-11-14 09:28:09.657143"
"313","大花轿婚纱摄影","0396-2982388","驻马店市","1","优质生活","河南省,驻马店市,驿城区,富强路与解放路交叉口向北...","2016-11-14 09:28:09.659768","2016-11-14 09:28:09.659768"
"314","蒙娜丽莎婚纱摄影","0396-2988996","驻马店市","5","优质生活","河南省,驻马店市,驿城区,步行街中段","2016-11-14 09:28:09.662413","2016-11-14 09:28:09.662413"
"315","喜车郎汽车形象养护中心","13303967700","驻马店市","1","车行","河南省,驻马店市,市辖区,纬二路西段（美域美家对面...","2016-11-14 09:28:09.664254","2016-11-14 09:28:09.664254"
"316","御驾汽车美容服务中心旗舰店","15539662622","驻马店市","1","车行","河南省,驻马店市,驿城区,雪松路与铜山大道交叉口向...","2016-11-14 09:28:09.666301","2016-11-14 09:28:09.666301"
"317","百汇汽车装饰美容","15039618855","驻马店市","1","车行","河南省,驻马店市,驿城区,驻马店驿城区","2016-11-14 09:28:09.668674","2016-11-14 09:28:09.668674"
"318","蓝鲸雕刻时光主题餐厅","0396—3318777","驻马店市","1","特色美食","河南省,驻马店市,驿城区,驻马店市文明大道与置地大...","2016-11-14 09:28:09.671544","2016-11-14 09:28:09.671544"
"319","荟苒瑜伽会所","0396-2896669","驻马店市","1","休闲养生","河南省,驻马店市,驿城区,文明大道与文化路交叉口东...","2016-11-14 09:28:09.674850","2016-11-14 09:28:09.674850"
"320","美兰德整形美容医院","0396-3650606","驻马店市","1","休闲养生","河南省,驻马店市,驿城区,置地大道与金山路交叉口北...","2016-11-14 09:28:09.677247","2016-11-14 09:28:09.677247"
"321","罗马经典婚纱摄影","0396-2927888","驻马店市","1","优质生活","河南省,驻马店市,驿城区,驿城区雪松大道交叉口南3...","2016-11-14 09:28:09.707220","2016-11-14 09:28:09.707220"
"322","骏德酒业乐山店","0396-2989699","驻马店市","1","优质生活","河南省,驻马店市,驿城区,驻马店乐山大道与金雀路交...","2016-11-14 09:28:09.709197","2016-11-14 09:28:09.709197"
"323","骏德酒业金山店","0396-3269699","驻马店市","1","优质生活","河南省,驻马店市,驿城区,驻马店置地大道与金山路交...","2016-11-14 09:28:09.710811","2016-11-14 09:28:09.710811"
"324","铂鑫假日酒店","0396-2672666","驻马店市","1","宾馆酒店","河南省,驻马店市,驿城区,置地大道与天中山大道交叉...","2016-11-14 09:28:09.712564","2016-11-14 09:28:09.712564"
"325","上上酒吧","0396-2993398","驻马店市","1","品味娱乐","河南省,驻马店市,驿城区,交通路与骏马路","2016-11-14 09:28:09.714260","2016-11-14 09:28:09.714260"
"326","大唐国际音乐会所","0396-8178888","驻马店市","1","品味娱乐","河南省,驻马店市,驿城区,纬一路与骏马路","2016-11-14 09:28:09.716001","2016-11-14 09:28:09.716001"
"327","K8时尚量贩KTV","15939393265","驻马店市","1","品味娱乐","河南省,驻马店市,驿城区,文祥路金雀路","2016-11-14 09:28:09.717677","2016-11-14 09:28:09.717677"
"328","正山堂茶社","0396-2662333","驻马店市","1","休闲养生","河南省,驻马店市,驿城区,金山路与通达路","2016-11-14 09:28:09.719489","2016-11-14 09:28:09.719489"
"329","水域温泉","0396-3608888","驻马店市","1","休闲养生","河南省,驻马店市,驿城区,前进大道与开源大道","2016-11-14 09:28:09.722747","2016-11-14 09:28:09.722747"
"330","嘉辰搏击健身俱乐部","0396-2333322","驻马店市","1","休闲养生","河南省,驻马店市,驿城区,解放路与文明路","2016-11-14 09:28:09.725309","2016-11-14 09:28:09.725309"
"331","聚福苑私房菜","18439586789","驻马店市","1","特色美食","河南省,驻马店市,驿城区,团结路与驿珠路","2016-11-14 09:28:09.727437","2016-11-14 09:28:09.727437"
"332","启航机电","18153069201","驻马店市","1","优质生活","河南省,驻马店市,驿城区,乐山路与金雀路","2016-11-14 09:28:09.757068","2016-11-14 09:28:09.757068"
"333","茗杨花艺","18103961880","驻马店市","1","优质生活","河南省,驻马店市,驿城区,骏马路与通达路交叉口南5...","2016-11-14 09:28:09.759954","2016-11-14 09:28:09.759954"
"334","水域极致酒店","0396-2997777","驻马店市","1","宾馆酒店","河南省,驻马店市,驿城区,天中山大道与置地大道","2016-11-14 09:28:09.762286","2016-11-14 09:28:09.762286"
"335","博雅水晶酒店","0396--2798888","驻马店市","1","宾馆酒店","河南省,驻马店市,驿城区,文明大道与丰泽路","2016-11-14 09:28:09.764081","2016-11-14 09:28:09.764081"
"336","柏林建国酒店","0396-3619999","驻马店市","1","宾馆酒店","河南省,驻马店市,驿城区,置地大道与文明大道","2016-11-14 09:28:09.766171","2016-11-14 09:28:09.766171"
"337","驿宝源名车专修","0396-3662563","驻马店市","1","车行","河南省,驻马店市,驿城区,金雀路269号","2016-11-14 09:28:09.771929","2016-11-14 09:28:09.771929"
"338","梦回大唐客栈","0396-2108888","驻马店市","1","宾馆酒店","河南省,驻马店市,驿城区,乐山大道与正乐路交叉口南...","2016-11-14 09:28:09.776301","2016-11-14 09:28:09.776301"
"339","车之美汽车服务","13223819626","驻马店市","1","车行","河南省,驻马店市,驿城区,团结路与文祥路交叉口向东...","2016-11-14 09:28:09.780191","2016-11-14 09:28:09.780191"
"340","广东渔港","0396-3339938","驻马店市","1","特色美食","河南省,驻马店市,驿城区,雪松路与盘龙山路向西10...","2016-11-14 09:28:09.783943","2016-11-14 09:28:09.783943"
"341","亿达汽车养护中心","13639655109","驻马店市","1","车行","河南省,驻马店市,驿城区,金雀路与天中山大道向东3...","2016-11-14 09:28:09.809310","2016-11-14 09:28:09.809310"
"342","驻马店·翔达汽车美容装饰","13939637671","驻马店市","1","车行","河南省,驻马店市,驿城区,翔达汽车美容装饰","2016-11-14 09:28:09.811032","2016-11-14 09:28:09.811032"
"343","格乐汽车美容维修中心","15286871231","驻马店市","1","车行","河南省,驻马店市,驿城区,格乐汽车美容维修中心","2016-11-14 09:28:09.812556","2016-11-14 09:28:09.812556"
"344","车宝贝美容装饰中心","13938399860","驻马店市","1","车行","河南省,驻马店市,市辖区,金雀路与文祥路交叉口","2016-11-14 09:28:09.814058","2016-11-14 09:28:09.814058"
"345","嘻唰唰郑州运营中心","18639970824","郑州市","5","优质生活","河南省,郑州市,市辖区,升龙广场A座721","2016-11-14 09:28:09.815556","2016-11-14 09:28:09.815556"
"346","北海市海城区上海路龙池汽车饰品经营部","18677980288","北海市","0","车行","广西壮族自治区,北海市,市辖区,银屋花园","2016-11-14 09:28:09.817204","2016-11-14 09:28:09.817204"
"347","北海新中车坊汽车维修有限公司","13878977747","北海市","0","车行","广西壮族自治区,北海市,市辖区,新中车坊","2016-11-14 09:28:09.818850","2016-11-14 09:28:09.818850"
"348","北海市海城区凯翔汽车维修中心","18607798286","北海市","0","车行","广西壮族自治区,北海市,市辖区,凯翔汽车维修中心","2016-11-14 09:28:09.821705","2016-11-14 09:28:09.821705"
"349","车友间汽车维修保养美容中心","13367693323","北海市","0","车行","广西壮族自治区,北海市,市辖区,车友间","2016-11-14 09:28:09.824624","2016-11-14 09:28:09.824624"
"350","精鹰汽车轮胎维修中心","18677780520","北海市","0","车行","广西壮族自治区,北海市,市辖区,金海岸大道","2016-11-14 09:28:09.827993","2016-11-14 09:28:09.827993"
"351","北海市海城区云发汽车用品经营部","13977953586","北海市","0","车行","广西壮族自治区,北海市,市辖区,米其林轮胎","2016-11-14 09:28:09.853068","2016-11-14 09:28:09.853068"
"352","北海市柏嘉商贸有限责任公司","15907796022","北海市","0","车行","广西壮族自治区,北海市,市辖区,柏嘉商贸有限责任公...","2016-11-14 09:28:09.857097","2016-11-14 09:28:09.857097"
"353","北海大道亚太汽车美容中心","18977957899","北海市","0","车行","广西壮族自治区,北海市,市辖区,亚太汽车美容中心","2016-11-14 09:28:09.860115","2016-11-14 09:28:09.860115"
"354","北海市海城区明车汇汽车维修中心","15907799802","北海市","0","车行","广西壮族自治区,北海市,市辖区,明车汇","2016-11-14 09:28:09.862472","2016-11-14 09:28:09.862472"
"355","北海市海城区峻瑛汽车修配厂","13977992916","北海市","0","车行","广西壮族自治区,北海市,市辖区,峻瑛汽车修配厂","2016-11-14 09:28:09.864858","2016-11-14 09:28:09.864858"
"356","北海市海城区车轩汽车用品店","13557098910","北海市","0","车行","广西壮族自治区,北海市,市辖区,车轩","2016-11-14 09:28:09.866766","2016-11-14 09:28:09.866766"
"357","汽车之家美容装饰","18539682558","驻马店市","3","车行","河南省,驻马店市,驿城区,前进路鹏宇幼儿园旁","2016-11-14 09:28:09.868829","2016-11-14 09:28:09.868829"
"358","驻马店·宝鑫行名车维修","18300752567","驻马店市","3","车行","河南省,驻马店市,驿城区,金山路翠景花园","2016-11-14 09:28:09.872372","2016-11-14 09:28:09.872372"
"359","驻马店·龙彪汽车生活馆","15836777720","驻马店市","3","车行","河南省,驻马店市,驿城区,交通路与盘龙山路交叉口","2016-11-14 09:28:09.874413","2016-11-14 09:28:09.874413"
"360","驻马店·小友汽车服务中心","15893958633","驻马店市","3","车行","河南省,驻马店市,驿城区,乐山路南段水果市场小友汽...","2016-11-14 09:28:09.901732","2016-11-14 09:28:09.901732"
"361","雅族汽车美容服务中心","13783338899","驻马店市","3","车行","河南省,驻马店市,驿城区,练江大道与文明交叉口","2016-11-14 09:28:09.904082","2016-11-14 09:28:09.904082"
"362","驻马店·新世纪专业维修服务","13033805518","驻马店市","3","车行","河南省,驻马店市,驿城区,天中山大道与练江路向北2...","2016-11-14 09:28:09.906481","2016-11-14 09:28:09.906481"
"363","驻马店·福特美容装饰中心","18039696335","驻马店市","3","车行","河南省,驻马店市,驿城区,文明路中段名人KTV后面","2016-11-14 09:28:09.908715","2016-11-14 09:28:09.908715"
"364","驻马店·洁美仕汽车服务部","13598901332","驻马店市","3","车行","河南省,驻马店市,驿城区,开源路与金山路交叉口","2016-11-14 09:28:09.911090","2016-11-14 09:28:09.911090"
"365","驻马店·远航汽车服务中心","15839681919","驻马店市","3","车行","河南省,驻马店市,驿城区,文祥路与迅达路交叉口","2016-11-14 09:28:09.912819","2016-11-14 09:28:09.912819"
"366","驻马店·丽晶汽车服务","13271705966","驻马店市","3","车行","河南省,驻马店市,驿城区,天中山大道与丰泽路交叉口","2016-11-14 09:28:09.914310","2016-11-14 09:28:09.914310"
"367","铭士汽修","15839934102","信阳市","3","车行","河南省,南阳市,卧龙区,车站南路名仕汽修","2016-11-14 09:28:09.915884","2016-11-14 09:28:09.915884"
"368","信阳市平桥区亮车已族洗车行","18637631708","信阳市","1","车行","河南省,信阳市,平桥区,亮车","2016-11-14 09:28:09.917377","2016-11-14 09:28:09.917377"
"369","南阳高新区车管所第九分店","18537790878","信阳市","3","车行","河南省,南阳市,卧龙区,电力花园北门","2016-11-14 09:28:09.919388","2016-11-14 09:28:09.919388"
"370","日报车友俱乐部汽车美容装饰","15083320316","信阳市","1","车行","河南省,南阳市,市辖区,南阳市百里奚路铁西派出所","2016-11-14 09:28:09.922473","2016-11-14 09:28:09.922473"
"371","南阳高新区炫燃汽车生活馆","15238113955","信阳市","3","车行","河南省,南阳市,宛城区,南阳仲景北路炫然汽车生活馆","2016-11-14 09:28:09.924253","2016-11-14 09:28:09.924253"
"372","南阳高新区景源汽车装饰美容中心","15517709038","信阳市","1","车行","河南省,南阳市,宛城区,南阳市高新区张衡路公安大厦","2016-11-14 09:28:09.955244","2016-11-14 09:28:09.955244"
"373","红源轮胎服务中心","15037725438","信阳市","1","车行","河南省,南阳市,卧龙区,南阳市工业北路金玛特工厂店","2016-11-14 09:28:09.957293","2016-11-14 09:28:09.957293"
"374","车衣裳-南阳首嘉汽车生活馆","18567298777","信阳市","1","车行","河南省,南阳市,卧龙区,雪枫路和车站路交叉口川香阁...","2016-11-14 09:28:09.959292","2016-11-14 09:28:09.959292"
"375","车之家爱车养护机构","0377-60661388","信阳市","3","车行","河南省,南阳市,市辖区,工业路春泉花园","2016-11-14 09:28:09.961558","2016-11-14 09:28:09.961558"
"376","南阳车之缘汽车美容有限公司","13525185398","信阳市","3","车行","河南省,南阳市,卧龙区,北京路居安小区门面","2016-11-14 09:28:09.964354","2016-11-14 09:28:09.964354"
"377","爱美汽车美容服务中心","0377-66067872","信阳市","3","车行","河南省,南阳市,市辖区,光武路双汇冷鲜肉","2016-11-14 09:28:09.966418","2016-11-14 09:28:09.966418"
"378","车仕雅汽车养护中心","13462571771","信阳市","3","车行","河南省,南阳市,宛城区,独山大道","2016-11-14 09:28:09.968299","2016-11-14 09:28:09.968299"
"379","漆彩虹汽车美容会所","18203886569","信阳市","1","车行","河南省,南阳市,宛城区,光武路和南都路交叉口","2016-11-14 09:28:09.971823","2016-11-14 09:28:09.971823"
"380","海洋汽车装饰轮胎美容","15538768235","信阳市","3","车行","河南省,南阳市,宛城区,南阳市伏牛路","2016-11-14 09:28:09.975637","2016-11-14 09:28:09.975637"
"381","腾飞汽车会所","15136687728","信阳市","3","车行","河南省,南阳市,卧龙区,百里奚路","2016-11-14 09:28:09.979817","2016-11-14 09:28:09.979817"
"382","一凡汽车美容装饰","15670211775","信阳市","3","车行","河南省,南阳市,卧龙区,一凡汽车专业汽车","2016-11-14 09:28:09.981728","2016-11-14 09:28:09.981728"
"383","安耐仕汽车养生馆","13937707392","信阳市","3","车行","河南省,南阳市,宛城区,长江银座商住楼","2016-11-14 09:28:10.009076","2016-11-14 09:28:10.009076"
"384","王朝汽车美容养护中心","15637789191","信阳市","3","车行","河南省,南阳市,宛城区,工农北路国家电网南阳供电公...","2016-11-14 09:28:10.010894","2016-11-14 09:28:10.010894"
"385","酷车装饰美容专家","13037682831","信阳市","1","车行","河南省,南阳市,市辖区,长江路与泰山路交叉口龙祥小...","2016-11-14 09:28:10.012606","2016-11-14 09:28:10.012606"
"386","南阳卖油郎商贸有限公司","13782183360","信阳市","3","车行","河南省,南阳市,宛城区,光武路光武新村七幢1楼","2016-11-14 09:28:10.014216","2016-11-14 09:28:10.014216"
"387","景鑫汽车美容养护中心","13838998329","信阳市","3","车行","河南省,南阳市,市辖区,袁记串串香","2016-11-14 09:28:10.015853","2016-11-14 09:28:10.015853"
"388","车爵士三汇汽车服务部","18637733927","信阳市","3","车行","河南省,南阳市,卧龙区,南阳北京大道世纪星酒店南阳...","2016-11-14 09:28:10.017526","2016-11-14 09:28:10.017526"
"389","南阳脱胎换轱汽车装饰店","18625658180","信阳市","3","车行","河南省,南阳市,卧龙区,北京大道","2016-11-14 09:28:10.019251","2016-11-14 09:28:10.019251"
"390","金泽汽车装饰美容会所","15137700727","信阳市","3","车行","河南省,南阳市,宛城区,建设东路宇信凯旋城对面","2016-11-14 09:28:10.022805","2016-11-14 09:28:10.022805"
"391","林虎汽车美容装饰","18203888184","信阳市","1","车行","河南省,南阳市,卧龙区,人民路与光武路交叉口向西5...","2016-11-14 09:28:10.026142","2016-11-14 09:28:10.026142"
"392","丽晶汽车美容中心","15093017767","信阳市","1","车行","河南省,南阳市,宛城区,孔明路与独山大道交叉口","2016-11-14 09:28:10.028818","2016-11-14 09:28:10.028818"
"393","九隆爱车美容服务会所","13673898123","信阳市","3","车行","河南省,南阳市,宛城区,张衡中路锦程公寓对面","2016-11-14 09:28:10.054845","2016-11-14 09:28:10.054845"
"394","医圣祠街汽车人家汽车美容会所","13838776956","信阳市","3","车行","河南省,南阳市,市辖区,南阳市医圣祠街汽车人家汽车...","2016-11-14 09:28:10.057859","2016-11-14 09:28:10.057859"
"395","龙义汽车美容俱乐部","18503777991","信阳市","3","车行","河南省,南阳市,卧龙区,百光武路","2016-11-14 09:28:10.060513","2016-11-14 09:28:10.060513"
"396","车夫爱车行","18530668587","信阳市","1","车行","河南省,南阳市,卧龙区,孔明南路","2016-11-14 09:28:10.062550","2016-11-14 09:28:10.062550"
"397","车世界汽车美容养护店","13623777701","信阳市","3","车行","河南省,南阳市,卧龙区,南阳市卧龙区滨河西路112...","2016-11-14 09:28:10.064112","2016-11-14 09:28:10.064112"
"398","美车堂汽车美容装饰","18336667805","信阳市","1","车行","河南省,南阳市,卧龙区,光武路与工业路交叉口","2016-11-14 09:28:10.065641","2016-11-14 09:28:10.065641"
"399","天下惠通汽车俱乐部有限公司","13949328557","信阳市","1","车行","河南省,南阳市,宛城区,孔明南路健康小区对面","2016-11-14 09:28:10.067193","2016-11-14 09:28:10.067193"
"400","南阳市滨河路净渺爱车饰界店","18637798507","信阳市","1","车行","河南省,南阳市,卧龙区,南阳市滨河路育阳桥","2016-11-14 09:28:10.069370","2016-11-14 09:28:10.069370"
"401","车道汽车装饰","15203866515","信阳市","3","车行","河南省,南阳市,宛城区,伏牛路","2016-11-14 09:28:10.073440","2016-11-14 09:28:10.073440"
"402","爱车居汽车美容装饰","18238119702","信阳市","3","车行","河南省,南阳市,宛城区,光武东路","2016-11-14 09:28:10.075388","2016-11-14 09:28:10.075388"
"403","老牌汽车美容装饰","0377—63321076","信阳市","3","车行","河南省,南阳市,宛城区,工农北路","2016-11-14 09:28:10.102841","2016-11-14 09:28:10.102841"
"404","南阳爱车之道顶级爱车会所","0377-62373566","信阳市","3","车行","河南省,南阳市,市辖区,独山大道","2016-11-14 09:28:10.105852","2016-11-14 09:28:10.105852"
"405","车驿行汽车维修","15503778896","信阳市","1","车行","河南省,南阳市,卧龙区,光武西路与百里溪路口","2016-11-14 09:28:10.109007","2016-11-14 09:28:10.109007"
"406","荣军汽车美容装饰超市","0377-83838565","信阳市","3","车行","河南省,南阳市,卧龙区,车站北路722号刘庄农贸市...","2016-11-14 09:28:10.111801","2016-11-14 09:28:10.111801"
"407","威卡汽车美容服务中心","18637741166","信阳市","1","车行","河南省,南阳市,卧龙区,白河大道仲景大桥","2016-11-14 09:28:10.113758","2016-11-14 09:28:10.113758"
"408","信阳市浉河区爱车仕洗车美容装饰部","18676356515","信阳市","1","车行","河南省,信阳市,浉河区,鸡公山大街与长安路交叉口","2016-11-14 09:28:10.115594","2016-11-14 09:28:10.115594"
"409","信阳市羊山新区亿通汽车服务","15537606866","信阳市","1","车行","河南省,信阳市,平桥区,新十六大街地税局","2016-11-14 09:28:10.117477","2016-11-14 09:28:10.117477"
